FLOCK 4G-24             
1 62637U 25009AE  26068.72509072  .00010513  00000+0  38996-3 0  9991
2 62637  97.4061 151.5140 0001802 280.2808  79.8228 15.27784978 63732
STARLINK-34182          
1 64013U 25101V   26068.17831815  .00058909  00000+0  21296-2 0  9991
2 64013  43.0053 357.6816 0002042 294.4039  65.6600 15.27635276 47015
